[
  {
    "OBJECT_NAME": "STARLINK-31888",
    "OBJECT_ID": "24093G",
    "EPOCH": "2025-11-10T14:10:14.624256",
    "MEAN_MOTION": 15.27579484,
    "ECCENTRICITY": 0.000154,
    "INCLINATION": 43.0017,
    "RA_OF_ASC_NODE": 161.2525,
    "ARG_OF_PERICENTER": 254.9,
    "MEAN_ANOMALY": 105.1681,
    "EPHEMERIS_TYPE": 0,
    "CLASSIFICATION_TYPE": "U",
    "NORAD_CAT_ID": 59788,
    "ELEMENT_SET_NO": 999,
    "REV_AT_EPOCH": 8448,
    "BSTAR": 0.0,
    "MEAN_MOTION_DOT": -2.71e-06,
    "MEAN_MOTION_DDOT": 0.0,
    "TLE_LINE1": "1 59788U 24093G   25314.59044704 -.00000271  00000+0 -33009-6 0  9995",
    "TLE_LINE2": "2 59788  43.0017 161.2525 0001540 254.9000 105.1681 15.27579484 84484",
    "COMMENT": "Grouped by shell and plane from TLE"
  },
  {
    "OBJECT_NAME": "STARLINK-31863",
    "OBJECT_ID": "24093H",
    "EPOCH": "2025-11-09T23:59:08.405376",
    "MEAN_MOTION": 15.27568494,
    "ECCENTRICITY": 0.0001514,
    "INCLINATION": 43.0015,
    "RA_OF_ASC_NODE": 164.5576,
    "ARG_OF_PERICENTER": 236.9525,
    "MEAN_ANOMALY": 123.1181,
    "EPHEMERIS_TYPE": 0,
    "CLASSIFICATION_TYPE": "U",
    "NORAD_CAT_ID": 59789,
    "ELEMENT_SET_NO": 999,
    "REV_AT_EPOCH": 8439,
    "BSTAR": 5.6589e-06,
    "MEAN_MOTION_DOT": -1.06e-06,
    "MEAN_MOTION_DDOT": 0.0,
    "TLE_LINE1": "1 59789U 24093H   25313.99940284 -.00000106  00000+0  56589-5 0  9990",
    "TLE_LINE2": "2 59789  43.0015 164.5576 0001514 236.9525 123.1181 15.27568494 84392",
    "COMMENT": "Grouped by shell and plane from TLE"
  },
  {
    "OBJECT_NAME": "STARLINK-33544",
    "OBJECT_ID": "24237Q",
    "EPOCH": "2025-11-10T23:26:38.818752",
    "MEAN_MOTION": 15.27612155,
    "ECCENTRICITY": 0.0001949,
    "INCLINATION": 43.0011,
    "RA_OF_ASC_NODE": 167.0261,
    "ARG_OF_PERICENTER": 260.4588,
    "MEAN_ANOMALY": 99.6044,
    "EPHEMERIS_TYPE": 0,
    "CLASSIFICATION_TYPE": "U",
    "NORAD_CAT_ID": 62281,
    "ELEMENT_SET_NO": 999,
    "REV_AT_EPOCH": 5303,
    "BSTAR": 0.0010325,
    "MEAN_MOTION_DOT": 0.00028289,
    "MEAN_MOTION_DDOT": 0.0,
    "TLE_LINE1": "1 62281U 24237Q   25314.97683818  .00028289  00000+0  10325-2 0  9993",
    "TLE_LINE2": "2 62281  43.0011 167.0261 0001949 260.4588  99.6044 15.27612155 53037",
    "COMMENT": "Grouped by shell and plane from TLE"
  },
  {
    "OBJECT_NAME": "STARLINK-33560",
    "OBJECT_ID": "24237R",
    "EPOCH": "2025-11-11T06:51:31.904352",
    "MEAN_MOTION": 15.27595983,
    "ECCENTRICITY": 7.55e-05,
    "INCLINATION": 42.9994,
    "RA_OF_ASC_NODE": 165.0367,
    "ARG_OF_PERICENTER": 7.7703,
    "MEAN_ANOMALY": 352.316,
    "EPHEMERIS_TYPE": 0,
    "CLASSIFICATION_TYPE": "U",
    "NORAD_CAT_ID": 62282,
    "ELEMENT_SET_NO": 999,
    "REV_AT_EPOCH": 5299,
    "BSTAR": 0.0014949000000000002,
    "MEAN_MOTION_DOT": 0.00041125,
    "MEAN_MOTION_DDOT": 0.0,
    "TLE_LINE1": "1 62282U 24237R   25315.28578593  .00041125  00000+0  14949-2 0  9992",
    "TLE_LINE2": "2 62282  42.9994 165.0367 0000755   7.7703 352.3160 15.27595983 52997",
    "COMMENT": "Grouped by shell and plane from TLE"
  },
  {
    "OBJECT_NAME": "STARLINK-33563",
    "OBJECT_ID": "24237T",
    "EPOCH": "2025-11-10T23:10:00.184224",
    "MEAN_MOTION": 15.27628345,
    "ECCENTRICITY": 2.41e-05,
    "INCLINATION": 42.9953,
    "RA_OF_ASC_NODE": 166.9317,
    "ARG_OF_PERICENTER": 315.7884,
    "MEAN_ANOMALY": 44.2948,
    "EPHEMERIS_TYPE": 0,
    "CLASSIFICATION_TYPE": "U",
    "NORAD_CAT_ID": 62284,
    "ELEMENT_SET_NO": 999,
    "REV_AT_EPOCH": 5303,
    "BSTAR": 0.0012822,
    "MEAN_MOTION_DOT": 0.00035243,
    "MEAN_MOTION_DDOT": 0.0,
    "TLE_LINE1": "1 62284U 24237T   25314.96527991  .00035243  00000+0  12822-2 0  9996",
    "TLE_LINE2": "2 62284  42.9953 166.9317 0000241 315.7884  44.2948 15.27628345 53037",
    "COMMENT": "Grouped by shell and plane from TLE"
  },
  {
    "OBJECT_NAME": "STARLINK-33550",
    "OBJECT_ID": "24237U",
    "EPOCH": "2025-11-11T06:45:55.856736",
    "MEAN_MOTION": 15.27685371,
    "ECCENTRICITY": 0.0003564,
    "INCLINATION": 43.0042,
    "RA_OF_ASC_NODE": 165.0099,
    "ARG_OF_PERICENTER": 275.2941,
    "MEAN_ANOMALY": 84.7504,
    "EPHEMERIS_TYPE": 0,
    "CLASSIFICATION_TYPE": "U",
    "NORAD_CAT_ID": 62285,
    "ELEMENT_SET_NO": 999,
    "REV_AT_EPOCH": 5308,
    "BSTAR": 0.0026834999999999997,
    "MEAN_MOTION_DOT": 0.00074581,
    "MEAN_MOTION_DDOT": 0.0,
    "TLE_LINE1": "1 62285U 24237U   25315.28189649  .00074581  00000+0  26835-2 0  9994",
    "TLE_LINE2": "2 62285  43.0042 165.0099 0003564 275.2941  84.7504 15.27685371 53085",
    "COMMENT": "Grouped by shell and plane from TLE"
  },
  {
    "OBJECT_NAME": "STARLINK-33564",
    "OBJECT_ID": "24237V",
    "EPOCH": "2025-11-11T07:06:19.358496",
    "MEAN_MOTION": 15.27598625,
    "ECCENTRICITY": 0.0002469,
    "INCLINATION": 43.0004,
    "RA_OF_ASC_NODE": 165.1188,
    "ARG_OF_PERICENTER": 260.2352,
    "MEAN_ANOMALY": 99.8221,
    "EPHEMERIS_TYPE": 0,
    "CLASSIFICATION_TYPE": "U",
    "NORAD_CAT_ID": 62286,
    "ELEMENT_SET_NO": 999,
    "REV_AT_EPOCH": 5308,
    "BSTAR": 0.0011222,
    "MEAN_MOTION_DOT": 0.00030765,
    "MEAN_MOTION_DDOT": 0.0,
    "TLE_LINE1": "1 62286U 24237V   25315.29605739  .00030765  00000+0  11222-2 0  9999",
    "TLE_LINE2": "2 62286  43.0004 165.1188 0002469 260.2352  99.8221 15.27598625 53085",
    "COMMENT": "Grouped by shell and plane from TLE"
  },
  {
    "OBJECT_NAME": "STARLINK-33546",
    "OBJECT_ID": "24237W",
    "EPOCH": "2025-11-11T06:55:13.818432",
    "MEAN_MOTION": 15.27608002,
    "ECCENTRICITY": 0.0001079,
    "INCLINATION": 42.9977,
    "RA_OF_ASC_NODE": 165.0542,
    "ARG_OF_PERICENTER": 271.7887,
    "MEAN_ANOMALY": 88.2841,
    "EPHEMERIS_TYPE": 0,
    "CLASSIFICATION_TYPE": "U",
    "NORAD_CAT_ID": 62287,
    "ELEMENT_SET_NO": 999,
    "REV_AT_EPOCH": 5299,
    "BSTAR": 0.0011114,
    "MEAN_MOTION_DOT": 0.00030473,
    "MEAN_MOTION_DDOT": 0.0,
    "TLE_LINE1": "1 62287U 24237W   25315.28835438  .00030473  00000+0  11114-2 0  9996",
    "TLE_LINE2": "2 62287  42.9977 165.0542 0001079 271.7887  88.2841 15.27608002 52992",
    "COMMENT": "Grouped by shell and plane from TLE"
  },
  {
    "OBJECT_NAME": "STARLINK-32702",
    "OBJECT_ID": "24251A",
    "EPOCH": "2025-11-10T20:22:40.086912",
    "MEAN_MOTION": 15.30209089,
    "ECCENTRICITY": 8.01e-05,
    "INCLINATION": 53.1637,
    "RA_OF_ASC_NODE": 164.4497,
    "ARG_OF_PERICENTER": 69.3863,
    "MEAN_ANOMALY": 290.7223,
    "EPHEMERIS_TYPE": 0,
    "CLASSIFICATION_TYPE": "U",
    "NORAD_CAT_ID": 62432,
    "ELEMENT_SET_NO": 999,
    "REV_AT_EPOCH": 4979,
    "BSTAR": 0.0012468,
    "MEAN_MOTION_DOT": 0.00036762,
    "MEAN_MOTION_DDOT": 0.0,
    "TLE_LINE1": "1 62432U 24251A   25314.84907508  .00036762  00000+0  12468-2 0  9993",
    "TLE_LINE2": "2 62432  53.1637 164.4497 0000801  69.3863 290.7223 15.30209089 49794",
    "COMMENT": "Grouped by shell and plane from TLE"
  },
  {
    "OBJECT_NAME": "STARLINK-32712",
    "OBJECT_ID": "24251B",
    "EPOCH": "2025-11-10T23:49:55.867008",
    "MEAN_MOTION": 15.30226051,
    "ECCENTRICITY": 7.96e-05,
    "INCLINATION": 53.1586,
    "RA_OF_ASC_NODE": 166.7621,
    "ARG_OF_PERICENTER": 114.6998,
    "MEAN_ANOMALY": 245.4086,
    "EPHEMERIS_TYPE": 0,
    "CLASSIFICATION_TYPE": "U",
    "NORAD_CAT_ID": 62433,
    "ELEMENT_SET_NO": 999,
    "REV_AT_EPOCH": 4977,
    "BSTAR": 0.0014525,
    "MEAN_MOTION_DOT": 0.00042942,
    "MEAN_MOTION_DDOT": 0.0,
    "TLE_LINE1": "1 62433U 24251B   25314.99300772  .00042942  00000+0  14525-2 0  9993",
    "TLE_LINE2": "2 62433  53.1586 166.7621 0000796 114.6998 245.4086 15.30226051 49778",
    "COMMENT": "Grouped by shell and plane from TLE"
  },
  {
    "OBJECT_NAME": "STARLINK-32674",
    "OBJECT_ID": "24251C",
    "EPOCH": "2025-11-11T06:45:29.652480",
    "MEAN_MOTION": 15.30209749,
    "ECCENTRICITY": 0.0003429,
    "INCLINATION": 53.1575,
    "RA_OF_ASC_NODE": 165.0137,
    "ARG_OF_PERICENTER": 75.6086,
    "MEAN_ANOMALY": 284.5295,
    "EPHEMERIS_TYPE": 0,
    "CLASSIFICATION_TYPE": "U",
    "NORAD_CAT_ID": 62434,
    "ELEMENT_SET_NO": 999,
    "REV_AT_EPOCH": 4982,
    "BSTAR": 0.0012683,
    "MEAN_MOTION_DOT": 0.00037408,
    "MEAN_MOTION_DDOT": 0.0,
    "TLE_LINE1": "1 62434U 24251C   25315.28159320  .00037408  00000+0  12683-2 0  9992",
    "TLE_LINE2": "2 62434  53.1575 165.0137 0003429  75.6086 284.5295 15.30209749 49828",
    "COMMENT": "Grouped by shell and plane from TLE"
  },
  {
    "OBJECT_NAME": "STARLINK-32711",
    "OBJECT_ID": "24251D",
    "EPOCH": "2025-11-10T23:45:22.371264",
    "MEAN_MOTION": 15.30224228,
    "ECCENTRICITY": 0.000101,
    "INCLINATION": 53.1586,
    "RA_OF_ASC_NODE": 166.7431,
    "ARG_OF_PERICENTER": 104.3483,
    "MEAN_ANOMALY": 255.763,
    "EPHEMERIS_TYPE": 0,
    "CLASSIFICATION_TYPE": "U",
    "NORAD_CAT_ID": 62435,
    "ELEMENT_SET_NO": 999,
    "REV_AT_EPOCH": 4977,
    "BSTAR": 0.0012676999999999999,
    "MEAN_MOTION_DOT": 0.00037403,
    "MEAN_MOTION_DDOT": 0.0,
    "TLE_LINE1": "1 62435U 24251D   25314.98984226  .00037403  00000+0  12677-2 0  9998",
    "TLE_LINE2": "2 62435  53.1586 166.7431 0001010 104.3483 255.7630 15.30224228 49777",
    "COMMENT": "Grouped by shell and plane from TLE"
  },
  {
    "OBJECT_NAME": "STARLINK-32697",
    "OBJECT_ID": "24251E",
    "EPOCH": "2025-11-10T23:27:09.067392",
    "MEAN_MOTION": 15.30228431,
    "ECCENTRICITY": 4.44e-05,
    "INCLINATION": 53.1579,
    "RA_OF_ASC_NODE": 166.6675,
    "ARG_OF_PERICENTER": 145.733,
    "MEAN_ANOMALY": 214.37,
    "EPHEMERIS_TYPE": 0,
    "CLASSIFICATION_TYPE": "U",
    "NORAD_CAT_ID": 62436,
    "ELEMENT_SET_NO": 999,
    "REV_AT_EPOCH": 4977,
    "BSTAR": 0.0014151,
    "MEAN_MOTION_DOT": 0.00041824,
    "MEAN_MOTION_DDOT": 0.0,
    "TLE_LINE1": "1 62436U 24251E   25314.97718828  .00041824  00000+0  14151-2 0  9992",
    "TLE_LINE2": "2 62436  53.1579 166.6675 0000444 145.7330 214.3700 15.30228431 49778",
    "COMMENT": "Grouped by shell and plane from TLE"
  }
]